{
    "links": {
        "self": "http://www.neowsapp.com/rest/v1/neo/3675146?api_key=iIulBulltgU6a56xZRHN4H3l9WmuAYTsLGpBGhQ2"
    },
    "id": "3675146",
    "neo_reference_id": "3675146",
    "name": "(2014 MO68)",
    "designation": "2014 MO68",
    "nasa_jpl_url": "http://ssd.jpl.nasa.gov/sbdb.cgi?sstr=3675146",
    "absolute_magnitude_h": 23.0,
    "estimated_diameter": {
        "kilometers": {
            "estimated_diameter_min": 0.0667659413,
            "estimated_diameter_max": 0.1492931834
        },
        "meters": {
            "estimated_diameter_min": 66.7659413495,
            "estimated_diameter_max": 149.2931834393
        },
        "miles": {
            "estimated_diameter_min": 0.0414864197,
            "estimated_diameter_max": 0.0927664547
        },
        "feet": {
            "estimated_diameter_min": 219.0483710172,
            "estimated_diameter_max": 489.807047955
        }
    },
    "is_potentially_hazardous_asteroid": false,
    "close_approach_data": [
        {
            "close_approach_date": "2014-07-18",
            "close_approach_date_full": "2014-Jul-18 00:22",
            "epoch_date_close_approach": 1405642920000,
            "relative_velocity": {
                "kilometers_per_second": "13.016492756",
                "kilometers_per_hour": "46859.3739216925",
                "miles_per_hour": "29116.5926459539"
            },
            "miss_distance": {
                "astronomical": "0.0815393877",
                "lunar": "31.7188218153",
                "kilometers": "12198118.721024199",
                "miles": "7579559.5043999862"
            },
            "orbiting_body": "Earth"
        }
    ],
    "orbital_data": {
        "orbit_id": "5",
        "orbit_determination_date": "2019-07-18 07:27:14",
        "first_observation_date": "2014-06-20",
        "last_observation_date": "2014-07-01",
        "data_arc_in_days": 11,
        "observations_used": 17,
        "orbit_uncertainty": "8",
        "minimum_orbit_intersection": ".00902646",
        "jupiter_tisserand_invariant": "3.254",
        "epoch_osculation": "2456834.5",
        "eccentricity": ".6028855502825498",
        "semi_major_axis": "2.395151055520679",
        "inclination": "2.583141365963117",
        "ascending_node_longitude": "318.1117228820736",
        "orbital_period": "1353.934919763144",
        "perihelion_distance": ".9511490934032645",
        "perihelion_argument": "22.15852663081847",
        "aphelion_distance": "3.839153017638094",
        "perihelion_time": "2456889.142408151066",
        "mean_anomaly": "345.4710395254264",
        "mean_motion": ".2658916575273633",
        "equinox": "J2000",
        "orbit_class": {
            "orbit_class_type": "APO",
            "orbit_class_description": "Near-Earth asteroid orbits which cross the Earth’s orbit similar to that of 1862 Apollo",
            "orbit_class_range": "a (semi-major axis) > 1.0 AU; q (perihelion) < 1.017 AU"
        }
    },
    "is_sentry_object": false
}